[{"OBJECT_NAME":"ONEWEB-0566","OBJECT_ID":"2023-043R","EPOCH":"2026-03-09T23:03:26.596800","MEAN_MOTION":13.21826764,"ECCENTRICITY":0.00019252,"INCLINATION":87.9163,"RA_OF_ASC_NODE":263.7583,"ARG_OF_PERICENTER":98.6651,"MEAN_ANOMALY":261.4701,"EPHEMERIS_TYPE":0,"CLASSIFICATION_TYPE":"U","NORAD_CAT_ID":56061,"ELEMENT_SET_NO":999,"REV_AT_EPOCH":14512,"BSTAR":9.989001e-5,"MEAN_MOTION_DOT":5.4e-7,"MEAN_MOTION_DDOT":0},{"OBJECT_NAME":"COSMOS 272","OBJECT_ID":"1969-024A","EPOCH":"2026-03-09T09:10:59.785824","MEAN_MOTION":13.17947174,"ECCENTRICITY":0.00200905,"INCLINATION":73.9906,"RA_OF_ASC_NODE":46.7794,"ARG_OF_PERICENTER":261.2276,"MEAN_ANOMALY":209.2019,"EPHEMERIS_TYPE":0,"CLASSIFICATION_TYPE":"U","NORAD_CAT_ID":3818,"ELEMENT_SET_NO":999,"REV_AT_EPOCH":74070,"BSTAR":-0.00037353481,"MEAN_MOTION_DOT":-1.65e-6,"MEAN_MOTION_DDOT":0}]
